{
  "type": "FeatureCollection",
  "features": [
    {
      "type": "Feature",
      "properties": {
        "norad_id": 2807,
        "name": "OPS 7218 (TRANSIT 16)",
        "group": "nnss",
        "lat": 56.50239329707135,
        "lon": 173.82657573667024,
        "alt_km": 1048.8480675064811,
        "timestamp": "2025-12-03T13:52:09.829945+00:00",
        "meta_object_name": "OPS 7218 (TRANSIT 16)",
        "meta_object_id": "1967-048A",
        "meta_epoch": "2025-12-03T07:58:47.054784",
        "meta_mean_motion": 13.50719426,
        "meta_eccentricity": 0.00214661,
        "meta_inclination": 89.6735,
        "meta_ra_of_asc_node": 354.3283,
        "meta_arg_of_pericenter": 139.4269,
        "meta_mean_anomaly": 231.4941,
        "meta_ephemeris_type": 0,
        "meta_classification_type": "U",
        "meta_norad_cat_id": 2807,
        "meta_element_set_no": 999,
        "meta_rev_at_epoch": 88149,
        "meta_bstar": 0.00022504013,
        "meta_mean_motion_dot": 1.55e-06,
        "meta_mean_motion_ddot": 0,
        "tle_line1": "1 02807U 67048A   25337.33248906  .00000155  00000+0  22504-3 0  9993",
        "tle_line2": "2 02807  89.6735 354.3283 0021466 139.4269 231.4941 13.50719426881490"
      },
      "geometry": {
        "type": "Point",
        "coordinates": [
          173.82657573667024,
          56.50239329707135
        ]
      }
    },
    {
      "type": "Feature",
      "properties": {
        "norad_id": 2965,
        "name": "OPS 4947 (TRANSIT 17)",
        "group": "nnss",
        "lat": 82.06830864635428,
        "lon": -160.2561365760618,
        "alt_km": 1084.9934818248885,
        "timestamp": "2025-12-03T13:52:09.829967+00:00",
        "meta_object_name": "OPS 4947 (TRANSIT 17)",
        "meta_object_id": "1967-092A",
        "meta_epoch": "2025-12-03T04:50:25.437984",
        "meta_mean_motion": 13.5344996,
        "meta_eccentricity": 0.0045771,
        "meta_inclination": 89.2506,
        "meta_ra_of_asc_node": 25.1627,
        "meta_arg_of_pericenter": 263.185,
        "meta_mean_anomaly": 162.8888,
        "meta_ephemeris_type": 0,
        "meta_classification_type": "U",
        "meta_norad_cat_id": 2965,
        "meta_element_set_no": 999,
        "meta_rev_at_epoch": 86968,
        "meta_bstar": 0.00024389872,
        "meta_mean_motion_dot": 1.76e-06,
        "meta_mean_motion_ddot": 0,
        "tle_line1": "1 02965U 67092A   25337.20168331  .00000176  00000+0  24390-3 0  9994",
        "tle_line2": "2 02965  89.2506  25.1627 0045771 263.1850 162.8888 13.53449960869688"
      },
      "geometry": {
        "type": "Point",
        "coordinates": [
          -160.2561365760618,
          82.06830864635428
        ]
      }
    },
    {
      "type": "Feature",
      "properties": {
        "norad_id": 3133,
        "name": "OPS 7034 (TRANSIT 18)",
        "group": "nnss",
        "lat": -49.90352058082585,
        "lon": -86.35452668212596,
        "alt_km": 1095.562898227421,
        "timestamp": "2025-12-03T13:52:09.829981+00:00",
        "meta_object_name": "OPS 7034 (TRANSIT 18)",
        "meta_object_id": "1968-012A",
        "meta_epoch": "2025-12-03T07:49:51.665088",
        "meta_mean_motion": 13.51562433,
        "meta_eccentricity": 0.00729744,
        "meta_inclination": 90.027,
        "meta_ra_of_asc_node": 273.6127,
        "meta_arg_of_pericenter": 196.5309,
        "meta_mean_anomaly": 329.4242,
        "meta_ephemeris_type": 0,
        "meta_classification_type": "U",
        "meta_norad_cat_id": 3133,
        "meta_element_set_no": 999,
        "meta_rev_at_epoch": 56791,
        "meta_bstar": 0.0001792568,
        "meta_mean_motion_dot": 1.28e-06,
        "meta_mean_motion_ddot": 0,
        "tle_line1": "1 03133U 68012A   25337.32629242  .00000128  00000+0  17926-3 0  9995",
        "tle_line2": "2 03133  90.0270 273.6127 0072974 196.5309 329.4242 13.51562433567917"
      },
      "geometry": {
        "type": "Point",
        "coordinates": [
          -86.35452668212596,
          -49.90352058082585
        ]
      }
    },
    {
      "type": "Feature",
      "properties": {
        "norad_id": 4507,
        "name": "NNSS 19 (TRANSIT 19)",
        "group": "nnss",
        "lat": -71.91756437065314,
        "lon": -125.45516989901766,
        "alt_km": 966.1237005127696,
        "timestamp": "2025-12-03T13:52:09.829994+00:00",
        "meta_object_name": "NNSS 19 (TRANSIT 19)",
        "meta_object_id": "1970-067A",
        "meta_epoch": "2025-12-03T07:06:18.758016",
        "meta_mean_motion": 13.51311111,
        "meta_eccentricity": 0.01711908,
        "meta_inclination": 90.0057,
        "meta_ra_of_asc_node": 234.5272,
        "meta_arg_of_pericenter": 320.9389,
        "meta_mean_anomaly": 37.9501,
        "meta_ephemeris_type": 0,
        "meta_classification_type": "U",
        "meta_norad_cat_id": 4507,
        "meta_element_set_no": 999,
        "meta_rev_at_epoch": 72094,
        "meta_bstar": 0.00028069904,
        "meta_mean_motion_dot": 2.07e-06,
        "meta_mean_motion_ddot": 0,
        "tle_line1": "1 04507U 70067A   25337.29605044  .00000207  00000+0  28070-3 0  9994",
        "tle_line2": "2 04507  90.0057 234.5272 0171190 320.9389  37.9501 13.51311111720942"
      },
      "geometry": {
        "type": "Point",
        "coordinates": [
          -125.45516989901766,
          -71.91756437065314
        ]
      }
    },
    {
      "type": "Feature",
      "properties": {
        "norad_id": 6909,
        "name": "NNSS 20 (TRANSIT 20)",
        "group": "nnss",
        "lat": 57.8292284988289,
        "lon": -104.57878295042663,
        "alt_km": 910.1092608732315,
        "timestamp": "2025-12-03T13:52:09.830006+00:00",
        "meta_object_name": "NNSS 20 (TRANSIT 20)",
        "meta_object_id": "1973-081A",
        "meta_epoch": "2025-12-03T04:50:06.290016",
        "meta_mean_motion": 13.71427651,
        "meta_eccentricity": 0.01564752,
        "meta_inclination": 89.8556,
        "meta_ra_of_asc_node": 255.1972,
        "meta_arg_of_pericenter": 106.5631,
        "meta_mean_anomaly": 255.2784,
        "meta_ephemeris_type": 0,
        "meta_classification_type": "U",
        "meta_norad_cat_id": 6909,
        "meta_element_set_no": 999,
        "meta_rev_at_epoch": 80230,
        "meta_bstar": 0.00028625341,
        "meta_mean_motion_dot": 2.93e-06,
        "meta_mean_motion_ddot": 0,
        "tle_line1": "1 06909U 73081A   25337.20146169  .00000293  00000+0  28625-3 0  9991",
        "tle_line2": "2 06909  89.8556 255.1972 0156475 106.5631 255.2784 13.71427651802301"
      },
      "geometry": {
        "type": "Point",
        "coordinates": [
          -104.57878295042663,
          57.8292284988289
        ]
      }
    },
    {
      "type": "Feature",
      "properties": {
        "norad_id": 10457,
        "name": "TRANSAT",
        "group": "nnss",
        "lat": 12.208190784303971,
        "lon": 78.99747627459188,
        "alt_km": 1094.0763775289397,
        "timestamp": "2025-12-03T13:52:09.830017+00:00",
        "meta_object_name": "TRANSAT",
        "meta_object_id": "1977-106A",
        "meta_epoch": "2025-12-03T08:47:40.611264",
        "meta_mean_motion": 13.48941256,
        "meta_eccentricity": 0.00245493,
        "meta_inclination": 89.6482,
        "meta_ra_of_asc_node": 78.9288,
        "meta_arg_of_pericenter": 217.1657,
        "meta_mean_anomaly": 208.8093,
        "meta_ephemeris_type": 0,
        "meta_classification_type": "U",
        "meta_norad_cat_id": 10457,
        "meta_element_set_no": 999,
        "meta_rev_at_epoch": 36617,
        "meta_bstar": 0.00014772306,
        "meta_mean_motion_dot": 1.03e-06,
        "meta_mean_motion_ddot": 0,
        "tle_line1": "1 10457U 77106A   25337.36644226  .00000103  00000+0  14772-3 0  9998",
        "tle_line2": "2 10457  89.6482  78.9288 0024549 217.1657 208.8093 13.48941256366177"
      },
      "geometry": {
        "type": "Point",
        "coordinates": [
          78.99747627459188,
          12.208190784303971
        ]
      }
    },
    {
      "type": "Feature",
      "properties": {
        "norad_id": 12458,
        "name": "NOVA 1",
        "group": "nnss",
        "lat": 38.81055986512899,
        "lon": 91.63359664309861,
        "alt_km": 1168.7973261506577,
        "timestamp": "2025-12-03T13:52:09.830028+00:00",
        "meta_object_name": "NOVA 1",
        "meta_object_id": "1981-044A",
        "meta_epoch": "2025-12-03T08:32:59.363232",
        "meta_mean_motion": 13.2327685,
        "meta_eccentricity": 0.00155992,
        "meta_inclination": 89.8522,
        "meta_ra_of_asc_node": 91.5178,
        "meta_arg_of_pericenter": 127.0923,
        "meta_mean_anomaly": 296.7011,
        "meta_ephemeris_type": 0,
        "meta_classification_type": "U",
        "meta_norad_cat_id": 12458,
        "meta_element_set_no": 999,
        "meta_rev_at_epoch": 15062,
        "meta_bstar": 0.00015557514,
        "meta_mean_motion_dot": 7.5e-07,
        "meta_mean_motion_ddot": 0,
        "tle_line1": "1 12458U 81044A   25337.35624263  .00000075  00000+0  15558-3 0  9996",
        "tle_line2": "2 12458  89.8522  91.5178 0015599 127.0923 296.7011 13.23276850150627"
      },
      "geometry": {
        "type": "Point",
        "coordinates": [
          91.63359664309861,
          38.81055986512899
        ]
      }
    }
  ]
}